[{"OBJECT_NAME":"SL-8 R/B","OBJECT_ID":"1991-006B","EPOCH":"2026-04-05T21:16:02.978112","MEAN_MOTION":13.7749907,"ECCENTRICITY":0.0021366,"INCLINATION":82.9432,"RA_OF_ASC_NODE":149.8249,"ARG_OF_PERICENTER":321.9274,"MEAN_ANOMALY":213.7799,"EPHEMERIS_TYPE":0,"CLASSIFICATION_TYPE":"U","NORAD_CAT_ID":21088,"ELEMENT_SET_NO":999,"REV_AT_EPOCH":76781,"BSTAR":0.00011209,"MEAN_MOTION_DOT":1.27e-6,"MEAN_MOTION_DDOT":0},{"OBJECT_NAME":"OKEAN-3","OBJECT_ID":"1991-039A","EPOCH":"2026-04-05T20:58:50.281248","MEAN_MOTION":15.04978735,"ECCENTRICITY":0.0013002,"INCLINATION":82.5152,"RA_OF_ASC_NODE":310.5008,"ARG_OF_PERICENTER":236.2399,"MEAN_ANOMALY":123.7589,"EPHEMERIS_TYPE":0,"CLASSIFICATION_TYPE":"U","NORAD_CAT_ID":21397,"ELEMENT_SET_NO":999,"REV_AT_EPOCH":86912,"BSTAR":0.0002727,"MEAN_MOTION_DOT":3.9e-5,"MEAN_MOTION_DDOT":0},{"OBJECT_NAME":"COSMOS 2151","OBJECT_ID":"1991-042A","EPOCH":"2026-04-05T19:56:11.850144","MEAN_MOTION":15.0023569,"ECCENTRICITY":0.0011618,"INCLINATION":82.4965,"RA_OF_ASC_NODE":57.4881,"ARG_OF_PERICENTER":335.887,"MEAN_ANOMALY":24.1809,"EPHEMERIS_TYPE":0,"CLASSIFICATION_TYPE":"U","NORAD_CAT_ID":21422,"ELEMENT_SET_NO":999,"REV_AT_EPOCH":86726,"BSTAR":0.00027531,"MEAN_MOTION_DOT":3.474e-5,"MEAN_MOTION_DDOT":0},{"OBJECT_NAME":"SL-14 R/B","OBJECT_ID":"1991-042B","EPOCH":"2026-04-05T18:25:40.714176","MEAN_MOTION":14.81859146,"ECCENTRICITY":0.0017855,"INCLINATION":82.4961,"RA_OF_ASC_NODE":194.7975,"ARG_OF_PERICENTER":148.1133,"MEAN_ANOMALY":212.1166,"EPHEMERIS_TYPE":0,"CLASSIFICATION_TYPE":"U","NORAD_CAT_ID":21423,"ELEMENT_SET_NO":999,"REV_AT_EPOCH":85708,"BSTAR":7.8883e-5,"MEAN_MOTION_DOT":6.49e-6,"MEAN_MOTION_DDOT":0},{"OBJECT_NAME":"ERS-1","OBJECT_ID":"1991-050A","EPOCH":"2026-04-05T14:20:59.031744","MEAN_MOTION":14.394718,"ECCENTRICITY":0.003297,"INCLINATION":98.7857,"RA_OF_ASC_NODE":114.5067,"ARG_OF_PERICENTER":121.569,"MEAN_ANOMALY":238.8723,"EPHEMERIS_TYPE":0,"CLASSIFICATION_TYPE":"U","NORAD_CAT_ID":21574,"ELEMENT_SET_NO":999,"REV_AT_EPOCH":81960,"BSTAR":0.00016446,"MEAN_MOTION_DOT":4.69e-6,"MEAN_MOTION_DDOT":0},{"OBJECT_NAME":"ARIANE 40 R/B","OBJECT_ID":"1991-050F","EPOCH":"2026-04-05T20:41:36.685824","MEAN_MOTION":14.42915126,"ECCENTRICITY":0.0003044,"INCLINATION":98.1956,"RA_OF_ASC_NODE":147.0714,"ARG_OF_PERICENTER":17.0562,"MEAN_ANOMALY":343.073,"EPHEMERIS_TYPE":0,"CLASSIFICATION_TYPE":"U","NORAD_CAT_ID":21610,"ELEMENT_SET_NO":999,"REV_AT_EPOCH":82291,"BSTAR":0.00013882,"MEAN_MOTION_DOT":4.22e-6,"MEAN_MOTION_DDOT":0},{"OBJECT_NAME":"INTERCOSMOS 25","OBJECT_ID":"1991-086A","EPOCH":"2026-04-05T13:36:46.277856","MEAN_MOTION":12.12097507,"ECCENTRICITY":0.1486249,"INCLINATION":82.6,"RA_OF_ASC_NODE":293.757,"ARG_OF_PERICENTER":59.0218,"MEAN_ANOMALY":314.8409,"EPHEMERIS_TYPE":0,"CLASSIFICATION_TYPE":"U","NORAD_CAT_ID":21819,"ELEMENT_SET_NO":999,"REV_AT_EPOCH":49994,"BSTAR":0.00039396,"MEAN_MOTION_DOT":2.038e-5,"MEAN_MOTION_DDOT":0},{"OBJECT_NAME":"SL-8 R/B","OBJECT_ID":"1992-008B","EPOCH":"2026-04-05T18:46:54.053184","MEAN_MOTION":13.75969942,"ECCENTRICITY":0.0035725,"INCLINATION":82.9245,"RA_OF_ASC_NODE":247.6195,"ARG_OF_PERICENTER":60.2815,"MEAN_ANOMALY":50.5003,"EPHEMERIS_TYPE":0,"CLASSIFICATION_TYPE":"U","NORAD_CAT_ID":21876,"ELEMENT_SET_NO":999,"REV_AT_EPOCH":71314,"BSTAR":1.9363e-5,"MEAN_MOTION_DOT":3.4e-7,"MEAN_MOTION_DDOT":0},{"OBJECT_NAME":"SL-8 R/B","OBJECT_ID":"1992-020B","EPOCH":"2026-04-05T14:47:49.805088","MEAN_MOTION":13.75550706,"ECCENTRICITY":0.0028109,"INCLINATION":82.9289,"RA_OF_ASC_NODE":133.7669,"ARG_OF_PERICENTER":220.3132,"MEAN_ANOMALY":254.3921,"EPHEMERIS_TYPE":0,"CLASSIFICATION_TYPE":"U","NORAD_CAT_ID":21938,"ELEMENT_SET_NO":999,"REV_AT_EPOCH":70483,"BSTAR":-4.8052e-7,"MEAN_MOTION_DOT":1.5e-7,"MEAN_MOTION_DDOT":0},{"OBJECT_NAME":"USA 81","OBJECT_ID":"1992-023A","EPOCH":"2026-04-05T18:19:27.846336","MEAN_MOTION":14.32377426,"ECCENTRICITY":0.0001476,"INCLINATION":85.0038,"RA_OF_ASC_NODE":115.8148,"ARG_OF_PERICENTER":71.3002,"MEAN_ANOMALY":288.8351,"EPHEMERIS_TYPE":0,"CLASSIFICATION_TYPE":"U","NORAD_CAT_ID":21949,"ELEMENT_SET_NO":999,"REV_AT_EPOCH":9866,"BSTAR":7.4136e-5,"MEAN_MOTION_DOT":2.2e-6,"MEAN_MOTION_DDOT":0},{"OBJECT_NAME":"COSMOS 2219","OBJECT_ID":"1992-076A","EPOCH":"2026-04-05T21:31:09.231168","MEAN_MOTION":14.14088432,"ECCENTRICITY":0.0017622,"INCLINATION":71.0604,"RA_OF_ASC_NODE":321.1976,"ARG_OF_PERICENTER":165.5705,"MEAN_ANOMALY":194.5924,"EPHEMERIS_TYPE":0,"CLASSIFICATION_TYPE":"U","NORAD_CAT_ID":22219,"ELEMENT_SET_NO":999,"REV_AT_EPOCH":72222,"BSTAR":-5.1065e-5,"MEAN_MOTION_DOT":-1.44e-6,"MEAN_MOTION_DDOT":0},{"OBJECT_NAME":"SL-16 R/B","OBJECT_ID":"1992-076B","EPOCH":"2026-04-05T19:53:23.076384","MEAN_MOTION":14.16862554,"ECCENTRICITY":0.0010998,"INCLINATION":70.9981,"RA_OF_ASC_NODE":131.209,"ARG_OF_PERICENTER":46.6432,"MEAN_ANOMALY":126.2284,"EPHEMERIS_TYPE":0,"CLASSIFICATION_TYPE":"U","NORAD_CAT_ID":22220,"ELEMENT_SET_NO":999,"REV_AT_EPOCH":72567,"BSTAR":-1.2897e-6,"MEAN_MOTION_DOT":-5.0e-7,"MEAN_MOTION_DDOT":0},{"OBJECT_NAME":"COSMOS 2221","OBJECT_ID":"1992-080A","EPOCH":"2026-04-05T20:32:02.899968","MEAN_MOTION":14.96329972,"ECCENTRICITY":0.001566,"INCLINATION":82.5021,"RA_OF_ASC_NODE":253.0502,"ARG_OF_PERICENTER":100.8371,"MEAN_ANOMALY":259.4614,"EPHEMERIS_TYPE":0,"CLASSIFICATION_TYPE":"U","NORAD_CAT_ID":22236,"ELEMENT_SET_NO":999,"REV_AT_EPOCH":78485,"BSTAR":0.00026014,"MEAN_MOTION_DOT":2.974e-5,"MEAN_MOTION_DDOT":0},{"OBJECT_NAME":"SL-16 R/B","OBJECT_ID":"1992-093B","EPOCH":"2026-04-05T21:02:33.347904","MEAN_MOTION":14.15455976,"ECCENTRICITY":0.0006663,"INCLINATION":71.0216,"RA_OF_ASC_NODE":307.195,"ARG_OF_PERICENTER":267.6164,"MEAN_ANOMALY":92.4196,"EPHEMERIS_TYPE":0,"CLASSIFICATION_TYPE":"U","NORAD_CAT_ID":22285,"ELEMENT_SET_NO":999,"REV_AT_EPOCH":71700,"BSTAR":-4.3854e-5,"MEAN_MOTION_DOT":-1.33e-6,"MEAN_MOTION_DDOT":0},{"OBJECT_NAME":"COSMOS 2228","OBJECT_ID":"1992-094A","EPOCH":"2026-04-05T18:53:09.300480","MEAN_MOTION":14.97346289,"ECCENTRICITY":0.0017349,"INCLINATION":82.5201,"RA_OF_ASC_NODE":211.3666,"ARG_OF_PERICENTER":206.6336,"MEAN_ANOMALY":153.3997,"EPHEMERIS_TYPE":0,"CLASSIFICATION_TYPE":"U","NORAD_CAT_ID":22286,"ELEMENT_SET_NO":999,"REV_AT_EPOCH":78011,"BSTAR":0.00032319,"MEAN_MOTION_DOT":3.788e-5,"MEAN_MOTION_DDOT":0},{"OBJECT_NAME":"SL-16 R/B","OBJECT_ID":"1993-016B","EPOCH":"2026-04-05T13:35:50.762400","MEAN_MOTION":14.15309504,"ECCENTRICITY":0.0012426,"INCLINATION":71.0072,"RA_OF_ASC_NODE":158.7359,"ARG_OF_PERICENTER":279.8652,"MEAN_ANOMALY":80.1067,"EPHEMERIS_TYPE":0,"CLASSIFICATION_TYPE":"U","NORAD_CAT_ID":22566,"ELEMENT_SET_NO":999,"REV_AT_EPOCH":70597,"BSTAR":0.00020644,"MEAN_MOTION_DOT":3.55e-6,"MEAN_MOTION_DDOT":0},{"OBJECT_NAME":"COSMOS 2242","OBJECT_ID":"1993-024A","EPOCH":"2026-04-05T20:20:46.178880","MEAN_MOTION":14.96681416,"ECCENTRICITY":0.0015606,"INCLINATION":82.518,"RA_OF_ASC_NODE":240.7322,"ARG_OF_PERICENTER":209.5043,"MEAN_ANOMALY":150.53,"EPHEMERIS_TYPE":0,"CLASSIFICATION_TYPE":"U","NORAD_CAT_ID":22626,"ELEMENT_SET_NO":999,"REV_AT_EPOCH":78445,"BSTAR":0.00022328,"MEAN_MOTION_DOT":2.579e-5,"MEAN_MOTION_DDOT":0}]
